{
    "links": {
        "self": "http://www.neowsapp.com/rest/v1/neo/54057201?api_key=iIulBulltgU6a56xZRHN4H3l9WmuAYTsLGpBGhQ2"
    },
    "id": "54057201",
    "neo_reference_id": "54057201",
    "name": "(2020 TY3)",
    "designation": "2020 TY3",
    "nasa_jpl_url": "http://ssd.jpl.nasa.gov/sbdb.cgi?sstr=54057201",
    "absolute_magnitude_h": 23.198,
    "estimated_diameter": {
        "kilometers": {
            "estimated_diameter_min": 0.060947371,
            "estimated_diameter_max": 0.1362824645
        },
        "meters": {
            "estimated_diameter_min": 60.9473709707,
            "estimated_diameter_max": 136.2824645404
        },
        "miles": {
            "estimated_diameter_min": 0.0378709288,
            "estimated_diameter_max": 0.0846819713
        },
        "feet": {
            "estimated_diameter_min": 199.9585725755,
            "estimated_diameter_max": 447.1209609627
        }
    },
    "is_potentially_hazardous_asteroid": false,
    "close_approach_data": [
        {
            "close_approach_date": "2020-10-29",
            "close_approach_date_full": "2020-Oct-29 00:07",
            "epoch_date_close_approach": 1603930020000,
            "relative_velocity": {
                "kilometers_per_second": "10.7487379802",
                "kilometers_per_hour": "38695.456728842",
                "miles_per_hour": "24043.8519879852"
            },
            "miss_distance": {
                "astronomical": "0.1574053541",
                "lunar": "61.2306827449",
                "kilometers": "23547505.699955767",
                "miles": "14631741.5590809046"
            },
            "orbiting_body": "Earth"
        }
    ],
    "orbital_data": {
        "orbit_id": "1",
        "orbit_determination_date": "2020-10-13 20:42:10",
        "first_observation_date": "2020-10-12",
        "last_observation_date": "2020-10-14",
        "data_arc_in_days": 2,
        "observations_used": 17,
        "orbit_uncertainty": "9",
        "minimum_orbit_intersection": ".0756691",
        "jupiter_tisserand_invariant": "3.352",
        "epoch_osculation": "2459135.5",
        "eccentricity": ".549130216546152",
        "semi_major_axis": "2.317835934278618",
        "inclination": "6.941656238739564",
        "ascending_node_longitude": "214.6786425836266",
        "orbital_period": "1288.909617484433",
        "perihelion_distance": "1.045042185769748",
        "perihelion_argument": "211.1684208810423",
        "aphelion_distance": "3.590629682787488",
        "perihelion_time": "2459171.571294081228",
        "mean_anomaly": "349.9250764420656",
        "mean_motion": ".2793058528825416",
        "equinox": "J2000",
        "orbit_class": {
            "orbit_class_type": "AMO",
            "orbit_class_description": "Near-Earth asteroid orbits similar to that of 1221 Amor",
            "orbit_class_range": "1.017 AU < q (perihelion) < 1.3 AU"
        }
    },
    "is_sentry_object": false
}